start=new Date('2022-03-22T00:00:00.000Z').valueOf();
sats=[{"MEAN_MOTION":"15.06405049","RA_OF_ASC_NODE":"260.6352","EPOCH":"2022-03-21T20:44:52.240128","SEMIMAJOR_AXIS":"6925.333","COUNTRY_CODE":"US","RCS_SIZE":"LARGE","INCLINATION":"53.0553","MEAN_ELEMENT_THEORY":"SGP4","REF_FRAME":"TEME","REV_AT_EPOCH":"9781","ELEMENT_SET_NO":"999","ARG_OF_PERICENTER":"64.5085","CENTER_NAME":"EARTH","TLE_LINE1":"1 45746U 20038S   22080.86449352  .00000907  00000-0  79752-4 0  9992","PERIAPSIS":"546.194","APOAPSIS":"548.202","TLE_LINE2":"2 45746  53.0553 260.6352 0001450  64.5085 295.6054 15.06405049 97811","NORAD_CAT_ID":"45746","ECCENTRICITY":"0.00014500","MEAN_MOTION_DOT":"0.00000907","TIME_SYSTEM":"UTC","CLASSIFICATION_TYPE":"U","DECAY_DATE":null,"BSTAR":"0.00007975200000","OBJECT_TYPE":"PAYLOAD","OBJECT_NAME":"STARLINK-1504","OBJECT_ID":"2020-038S","LAUNCH_DATE":"2020-06-13","EPHEMERIS_TYPE":"0","SITE":"AFETR","GP_ID":"199346965","PERIOD":"95.592","MEAN_ANOMALY":"295.6054","MEAN_MOTION_DDOT":"0.0000000000000","FILE":"3368836"},{"LAUNCH_DATE":"2020-06-13","OBJECT_ID":"2020-038T","SITE":"AFETR","EPHEMERIS_TYPE":"0","PERIOD":"95.592","GP_ID":"199345215","MEAN_MOTION_DDOT":"0.0000000000000","MEAN_ANOMALY":"300.8426","FILE":"3368836","TLE_LINE2":"2 45747  53.0544 260.6316 0001778  59.2738 300.8426 15.06402058 97821","ECCENTRICITY":"0.00017780","NORAD_CAT_ID":"45747","TIME_SYSTEM":"UTC","MEAN_MOTION_DOT":"-0.00000885","CLASSIFICATION_TYPE":"U","OBJECT_TYPE":"PAYLOAD","BSTAR":"-0.00004053300000","DECAY_DATE":null,"OBJECT_NAME":"STARLINK-1506","ARG_OF_PERICENTER":"59.2738","CENTER_NAME":"EARTH","TLE_LINE1":"1 45747U 20038T   22080.86818676 -.00000885  00000-0 -40533-4 0  9994","APOAPSIS":"548.439","PERIAPSIS":"545.976","RA_OF_ASC_NODE":"260.6316","MEAN_MOTION":"15.06402058","EPOCH":"2022-03-21T20:50:11.336064","COUNTRY_CODE":"US","RCS_SIZE":"LARGE","SEMIMAJOR_AXIS":"6925.342","INCLINATION":"53.0544","REF_FRAME":"TEME","MEAN_ELEMENT_THEORY":"SGP4","ELEMENT_SET_NO":"999","REV_AT_EPOCH":"9782"},{"SITE":"AFETR","EPHEMERIS_TYPE":"0","LAUNCH_DATE":"2020-06-13","OBJECT_ID":"2020-038U","MEAN_MOTION_DDOT":"0.0000000000000","MEAN_ANOMALY":"291.9918","PERIOD":"95.592","GP_ID":"199345465","FILE":"3368836","TLE_LINE2":"2 45748  53.0514 260.6851 0001396  68.1220 291.9918 15.06405956 97819","TIME_SYSTEM":"UTC","MEAN_MOTION_DOT":"0.00000654","ECCENTRICITY":"0.00013960","NORAD_CAT_ID":"45748","OBJECT_TYPE":"PAYLOAD","DECAY_DATE":null,"BSTAR":"0.00006280800000","CLASSIFICATION_TYPE":"U","OBJECT_NAME":"STARLINK-1507","ARG_OF_PERICENTER":"68.1220","CENTER_NAME":"EARTH","APOAPSIS":"548.162","PERIAPSIS":"546.229","TLE_LINE1":"1 45748U 20038U   22080.85617381  .00000654  00000-0  62808-4 0  9995","MEAN_MOTION":"15.06405956","RA_OF_ASC_NODE":"260.6851","RCS_SIZE":"LARGE","COUNTRY_CODE":"US","SEMIMAJOR_AXIS":"6925.330","EPOCH":"2022-03-21T20:32:53.417184","INCLINATION":"53.0514","REV_AT_EPOCH":"9781","ELEMENT_SET_NO":"999","REF_FRAME":"TEME","MEAN_ELEMENT_THEORY":"SGP4"},{"TLE_LINE2":"2 45750  53.0539 240.5608 0001419  65.2076 294.9061 15.06405604 98115","MEAN_MOTION_DOT":"0.00000620","TIME_SYSTEM":"UTC","NORAD_CAT_ID":"45750","ECCENTRICITY":"0.00014190","BSTAR":"0.00006052500000","DECAY_DATE":null,"OBJECT_TYPE":"PAYLOAD","CLASSIFICATION_TYPE":"U","OBJECT_NAME":"STARLINK-1391","EPHEMERIS_TYPE":"0","SITE":"AFETR","OBJECT_ID":"2020-038W","LAUNCH_DATE":"2020-06-13","MEAN_ANOMALY":"294.9061","MEAN_MOTION_DDOT":"0.0000000000000","GP_ID":"199346715","PERIOD":"95.592","FILE":"3368836","RA_OF_ASC_NODE":"240.5608","MEAN_MOTION":"15.06405604","SEMIMAJOR_AXIS":"6925.331","RCS_SIZE":"LARGE","COUNTRY_CODE":"US","EPOCH":"2022-03-21T21:14:03.432480","INCLINATION":"53.0539","REV_AT_EPOCH":"9811","ELEMENT_SET_NO":"999","MEAN_ELEMENT_THEORY":"SGP4","REF_FRAME":"TEME","ARG_OF_PERICENTER":"65.2076","CENTER_NAME":"EARTH","PERIAPSIS":"546.214","APOAPSIS":"548.179","TLE_LINE1":"1 45750U 20038W   22080.88476195  .00000620  00000-0  60525-4 0  9994"},{"MEAN_ELEMENT_THEORY":"SGP4","REF_FRAME":"TEME","REV_AT_EPOCH":"9809","ELEMENT_SET_NO":"999","INCLINATION":"53.0550","EPOCH":"2022-03-21T17:57:41.271840","COUNTRY_CODE":"US","RCS_SIZE":"LARGE","SEMIMAJOR_AXIS":"6925.365","RA_OF_ASC_NODE":"241.1681","MEAN_MOTION":"15.06394585","TLE_LINE1":"1 45751U 20038X   22080.74839435 -.00000698  00000-0 -27963-4 0  9996","APOAPSIS":"548.304","PERIAPSIS":"546.156","CENTER_NAME":"EARTH","ARG_OF_PERICENTER":"63.3701","OBJECT_NAME":"STARLINK-1464","CLASSIFICATION_TYPE":"U","OBJECT_TYPE":"PAYLOAD","BSTAR":"-0.00002796300000","DECAY_DATE":null,"ECCENTRICITY":"0.00015510","NORAD_CAT_ID":"45751","TIME_SYSTEM":"UTC","MEAN_MOTION_DOT":"-0.00000698","TLE_LINE2":"2 45751  53.0550 241.1681 0001551  63.3701 296.7447 15.06394585 98098","FILE":"3368836","PERIOD":"95.592","GP_ID":"199346467","MEAN_MOTION_DDOT":"0.0000000000000","MEAN_ANOMALY":"296.7447","LAUNCH_DATE":"2020-06-13","OBJECT_ID":"2020-038X","SITE":"AFETR","EPHEMERIS_TYPE":"0"},{"EPOCH":"2022-03-21T21:23:41.793216","SEMIMAJOR_AXIS":"6717.819","COUNTRY_CODE":"US","RCS_SIZE":"LARGE","MEAN_MOTION":"15.76740951","RA_OF_ASC_NODE":"332.5765","REF_FRAME":"TEME","MEAN_ELEMENT_THEORY":"SGP4","REV_AT_EPOCH":"10182","ELEMENT_SET_NO":"999","INCLINATION":"53.0015","CENTER_NAME":"EARTH","ARG_OF_PERICENTER":"24.9717","TLE_LINE1":"1 45752U 20038Y   22080.89145594 -.00005045  00000-0 -26811-4 0  9991","PERIAPSIS":"338.542","APOAPSIS":"340.825","NORAD_CAT_ID":"45752","ECCENTRICITY":"0.00016990","MEAN_MOTION_DOT":"-0.00005045","TIME_SYSTEM":"UTC","TLE_LINE2":"2 45752  53.0015 332.5765 0001699  24.9717 335.1384 15.76740951101829","OBJECT_NAME":"STARLINK-1469","CLASSIFICATION_TYPE":"U","BSTAR":"-0.00002681100000","DECAY_DATE":null,"OBJECT_TYPE":"PAYLOAD","GP_ID":"199345714","PERIOD":"91.328","MEAN_ANOMALY":"335.1384","MEAN_MOTION_DDOT":"0.0000000000000","LAUNCH_DATE":"2020-06-13","OBJECT_ID":"2020-038Y","EPHEMERIS_TYPE":"0","SITE":"AFETR","FILE":"3368836"},{"FILE":"3368836","PERIOD":"95.592","GP_ID":"199345964","MEAN_MOTION_DDOT":"0.0000000000000","MEAN_ANOMALY":"302.8400","OBJECT_ID":"2020-038Z","LAUNCH_DATE":"2020-06-13","SITE":"AFETR","EPHEMERIS_TYPE":"0","OBJECT_NAME":"STARLINK-1476","CLASSIFICATION_TYPE":"U","OBJECT_TYPE":"PAYLOAD","DECAY_DATE":null,"BSTAR":"0.00012600000000","ECCENTRICITY":"0.00015280","NORAD_CAT_ID":"45753","TIME_SYSTEM":"UTC","MEAN_MOTION_DOT":"0.00001596","TLE_LINE2":"2 45753  53.0544 240.8308 0001528  57.2736 302.8400 15.06402165 98103","TLE_LINE1":"1 45753U 20038Z   22080.82578906  .00001596  00000-0  12600-3 0  9997","APOAPSIS":"548.265","PERIAPSIS":"546.149","CENTER_NAME":"EARTH","ARG_OF_PERICENTER":"57.2736","REF_FRAME":"TEME","MEAN_ELEMENT_THEORY":"SGP4","ELEMENT_SET_NO":"999","REV_AT_EPOCH":"9810","INCLINATION":"53.0544","EPOCH":"2022-03-21T19:49:08.174784","RCS_SIZE":"LARGE","COUNTRY_CODE":"US","SEMIMAJOR_AXIS":"6925.342","RA_OF_ASC_NODE":"240.8308","MEAN_MOTION":"15.06402165"},{"MEAN_ANOMALY":"293.1444","MEAN_MOTION_DDOT":"0.0000000000000","GP_ID":"199346217","PERIOD":"95.592","EPHEMERIS_TYPE":"0","SITE":"AFETR","OBJECT_ID":"2020-038AA","LAUNCH_DATE":"2020-06-13","FILE":"3368836","MEAN_MOTION_DOT":"0.00001911","TIME_SYSTEM":"UTC","NORAD_CAT_ID":"45754","ECCENTRICITY":"0.00017820","TLE_LINE2":"2 45754  53.0534 240.8042 0001782  66.9733 293.1444 15.06405497 98105","OBJECT_NAME":"STARLINK-1477","DECAY_DATE":null,"BSTAR":"0.00014716000000","OBJECT_TYPE":"PAYLOAD","CLASSIFICATION_TYPE":"U","CENTER_NAME":"EARTH","ARG_OF_PERICENTER":"66.9733","PERIAPSIS":"545.963","APOAPSIS":"548.431","TLE_LINE1":"1 45754U 20038AA  22080.82947618  .00001911  00000-0  14716-3 0  9999","SEMIMAJOR_AXIS":"6925.332","COUNTRY_CODE":"US","RCS_SIZE":"LARGE","EPOCH":"2022-03-21T19:54:26.741952","RA_OF_ASC_NODE":"240.8042","MEAN_MOTION":"15.06405497","REV_AT_EPOCH":"9810","ELEMENT_SET_NO":"999","REF_FRAME":"TEME","MEAN_ELEMENT_THEORY":"SGP4","INCLINATION":"53.0534"},{"CLASSIFICATION_TYPE":"U","OBJECT_TYPE":"PAYLOAD","BSTAR":"0.00000700780000","DECAY_DATE":null,"OBJECT_NAME":"STARLINK-1478","TLE_LINE2":"2 45755  53.0536 241.3271 0001673  71.0300 289.0870 15.06401992 98073","ECCENTRICITY":"0.00016730","NORAD_CAT_ID":"45755","TIME_SYSTEM":"UTC","MEAN_MOTION_DOT":"-0.00000177","FILE":"3368836","OBJECT_ID":"2020-038AB","LAUNCH_DATE":"2020-06-13","SITE":"AFETR","EPHEMERIS_TYPE":"0","PERIOD":"95.592","GP_ID":"199346966","MEAN_MOTION_DDOT":"0.0000000000000","MEAN_ANOMALY":"289.0870","INCLINATION":"53.0536","REF_FRAME":"TEME","MEAN_ELEMENT_THEORY":"SGP4","ELEMENT_SET_NO":"999","REV_AT_EPOCH":"9807","RA_OF_ASC_NODE":"241.3271","MEAN_MOTION":"15.06401992","EPOCH":"2022-03-21T17:09:54.643392","COUNTRY_CODE":"US","RCS_SIZE":"LARGE","SEMIMAJOR_AXIS":"6925.342","TLE_LINE1":"1 45755U 20038AB  22080.71521578 -.00000177  00000-0  70078-5 0  9990","APOAPSIS":"548.366","PERIAPSIS":"546.049","ARG_OF_PERICENTER":"71.0300","CENTER_NAME":"EARTH"},{"TLE_LINE1":"1 45756U 20038AC  22080.84422473  .00002399  00000-0  17984-3 0  9991","PERIAPSIS":"546.069","APOAPSIS":"548.260","CENTER_NAME":"EARTH","ARG_OF_PERICENTER":"64.6366","MEAN_ELEMENT_THEORY":"SGP4","REF_FRAME":"TEME","REV_AT_EPOCH":"9809","ELEMENT_SET_NO":"999","INCLINATION":"53.0542","EPOCH":"2022-03-21T20:15:41.016672","SEMIMAJOR_AXIS":"6925.300","RCS_SIZE":"LARGE","COUNTRY_CODE":"US","MEAN_MOTION":"15.06415908","RA_OF_ASC_NODE":"240.7438","FILE":"3368836","GP_ID":"199345216","PERIOD":"95.591","MEAN_ANOMALY":"295.4787","MEAN_MOTION_DDOT":"0.0000000000000","LAUNCH_DATE":"2020-06-13","OBJECT_ID":"2020-038AC","EPHEMERIS_TYPE":"0","SITE":"AFETR","OBJECT_NAME":"STARLINK-1484","CLASSIFICATION_TYPE":"U","DECAY_DATE":null,"BSTAR":"0.00017984000000","OBJECT_TYPE":"PAYLOAD","NORAD_CAT_ID":"45756","ECCENTRICITY":"0.00015820","MEAN_MOTION_DOT":"0.00002399","TIME_SYSTEM":"UTC","TLE_LINE2":"2 45756  53.0542 240.7438 0001582  64.6366 295.4787 15.06415908 98090"}];
